CTC1_L_00418016-03
1 51345U 24981KF  26070.40836806  .00000000  00000+0  00000-0 0  9991
2 51345  85.0000 180.0000 0000000   0.0000   0.0000 12.77881384    12
CTC1_L_00418016-04
1 51346U 24187KX  26070.40836806  .00000000  00000+0  00000-0 0  9990
2 51346  85.0000 180.0000 0000000   0.0000  90.0000 12.77881384    12
CTC1_L_00418017-01
1 51347U 24603HI  26070.40836806  .00000000  00000+0  00000-0 0  9994
2 51347  85.0000 192.0000 0000000   0.0000 192.0000 12.77881384    19
CTC1_L_00418017-02
1 51348U 26021JH  26070.40836806  .00000000  00000+0  00000-0 0  9991
2 51348  85.0000 192.0000 0000000   0.0000 282.0000 12.77881384    10
CTC1_L_00418017-03
1 51349U 22178UN  26070.40836806  .00000000  00000+0  00000-0 0  9991
2 51349  85.0000 192.0000 0000000   0.0000  12.0000 12.77881384    12
CTC1_L_00418017-04
1 51350U 24024NQ  26070.40836806  .00000000  00000+0  00000-0 0  9995
2 51350  85.0000 192.0000 0000000   0.0000 102.0000 12.77881384    14
CTC1_L_00418018-01
1 51351U 23627GF  26070.40836806  .00000000  00000+0  00000-0 0  9994
2 51351  85.0000 204.0000 0000000   0.0000 204.0000 12.77881384    12
CTC1_L_00418018-02
1 51352U 24502OI  26070.40836806  .00000000  00000+0  00000-0 0  9998
2 51352  85.0000 204.0000 0000000   0.0000 294.0000 12.77881384    12
CTC1_L_00418018-03
1 51353U 22936ZP  26070.40836806  .00000000  00000+0  00000-0 0  9998
2 51353  85.0000 204.0000 0000000   0.0000  24.0000 12.77881384    14
CTC1_L_00418018-04
1 51354U 24129LA  26070.40836806  .00000000  00000+0  00000-0 0  9995
2 51354  85.0000 204.0000 0000000   0.0000 114.0000 12.77881384    15
CTC1_L_00418019-01
1 51355U 22634SV  26070.40836806  .00000000  00000+0  00000-0 0  9995
2 51355  85.0000 216.0000 0000000   0.0000 216.0000 12.77881384    12
CTC1_L_00418019-02
1 51356U 23907MU  26070.40836806  .00000000  00000+0  00000-0 0  9990
2 51356  85.0000 216.0000 0000000   0.0000 306.0000 12.77881384    13
CTC1_L_00418019-03
1 51357U 23886EY  26070.40836806  .00000000  00000+0  00000-0 0  9997
2 51357  85.0000 216.0000 0000000   0.0000  36.0000 12.77881384    14
CTC1_L_00418019-04
1 51358U 23610JC  26070.40836806  .00000000  00000+0  00000-0 0  9993
2 51358  85.0000 216.0000 0000000   0.0000 126.0000 12.77881384    15
CTC1_L_00418020-01
1 51359U 25147WR  26070.40836806  .00000000  00000+0  00000-0 0  9991
2 51359  85.0000 228.0000 0000000   0.0000 228.0000 12.77881384    12
CTC1_L_00418020-02
1 51360U 22899JH  26070.40836806  .00000000  00000+0  00000-0 0  9994
2 51360  85.0000 228.0000 0000000   0.0000 318.0000 12.77881384    14
CTC1_L_00418020-03
1 51361U 23553NR  26070.40836806  .00000000  00000+0  00000-0 0  9993
2 51361  85.0000 228.0000 0000000   0.0000  48.0000 12.77881384    15
CTC1_L_00418020-04
1 51362U 23769LP  26070.40836806  .00000000  00000+0  00000-0 0  9993
2 51362  85.0000 228.0000 0000000   0.0000 138.0000 12.77881384    16
CTC1_L_00418021-01
1 51363U 22946UQ  26070.40836806  .00000000  00000+0  00000-0 0  9990
2 51363  85.0000 240.0000 0000000   0.0000 240.0000 12.77881384    15
CTC1_L_00418021-02
1 51364U 22436OT  26070.40836806  .00000000  00000+0  00000-0 0  9995
2 51364  85.0000 240.0000 0000000   0.0000 330.0000 12.77881384    16
CTC1_L_00418021-03
1 51365U 26168ML  26070.40836806  .00000000  00000+0  00000-0 0  9992
2 51365  85.0000 240.0000 0000000   0.0000  60.0000 12.77881384    17
CTC1_L_00418021-04
1 51366U 24966NS  26070.40836806  .00000000  00000+0  00000-0 0  9997
2 51366  85.0000 240.0000 0000000   0.0000 150.0000 12.77881384    18
CTC1_L_00418022-01
1 51367U 25569YH  26070.40836806  .00000000  00000+0  00000-0 0  9998
2 51367  85.0000 252.0000 0000000   0.0000 252.0000 12.77881384    15
CTC1_L_00418022-02
1 51368U 26112H   26070.40836806  .00000000  00000+0  00000-0 0  9994
2 51368  85.0000 252.0000 0000000   0.0000 342.0000 12.77881384    16
CTC1_L_00418022-03
1 51369U 23744WQ  26070.40836806  .00000000  00000+0  00000-0 0  9993
2 51369  85.0000 252.0000 0000000   0.0000  72.0000 12.77881384    17
CTC1_L_00418022-04
1 51370U 24828EY  26070.40836806  .00000000  00000+0  00000-0 0  9999
2 51370  85.0000 252.0000 0000000   0.0000 162.0000 12.77881384    19
CTC1_L_00418023-01
1 51371U 23074HF  26070.40836806  .00000000  00000+0  00000-0 0  9992
2 51371  85.0000 264.0000 0000000   0.0000 264.0000 12.77881384    16
CTC1_L_00418023-02
1 51372U 23491XC  26070.40836806  .00000000  00000+0  00000-0 0  9996
2 51372  85.0000 264.0000 0000000   0.0000 354.0000 12.77881384    17
CTC1_L_00418023-03
1 51373U 23550OF  26070.40836806  .00000000  00000+0  00000-0 0  9993
2 51373  85.0000 264.0000 0000000   0.0000  84.0000 12.77881384    18
CTC1_L_00418023-04
1 51374U 24002GY  26070.40836806  .00000000  00000+0  00000-0 0  9997
2 51374  85.0000 264.0000 0000000   0.0000 174.0000 12.77881384    19
CTC1_L_00418024-01
1 51375U 23925AU  26070.40836806  .00000000  00000+0  00000-0 0  9991
2 51375  85.0000 276.0000 0000000   0.0000 276.0000 12.77881384    16
CTC1_L_00418024-02
1 51376U 26520JG  26070.40836806  .00000000  00000+0  00000-0 0  9996
2 51376  85.0000 276.0000 0000000   0.0000   6.0000 12.77881384    18
CTC1_L_00418024-03
1 51377U 23309YQ  26070.40836806  .00000000  00000+0  00000-0 0  9999
2 51377  85.0000 276.0000 0000000   0.0000  96.0000 12.77881384    18
CTC1_L_00418024-04
1 51378U 22798CS  26070.40836806  .00000000  00000+0  00000-0 0  9991
2 51378  85.0000 276.0000 0000000   0.0000 186.0000 12.77881384    19
CTC1_L_00418025-01
1 51379U 23823PI  26070.40836806  .00000000  00000+0  00000-0 0  9992
2 51379  85.0000 288.0000 0000000   0.0000 288.0000 12.77881384    16
CTC1_L_00418025-02
1 51380U 23219ND  26070.40836806  .00000000  00000+0  00000-0 0  9993
2 51380  85.0000 288.0000 0000000   0.0000  18.0000 12.77881384    19
CTC1_L_00418025-03
1 51381U 23133UQ  26070.40836806  .00000000  00000+0  00000-0 0  9999
2 51381  85.0000 288.0000 0000000   0.0000 108.0000 12.77881384    10
CTC1_L_00418025-04
1 51382U 23312UA  26070.40836806  .00000000  00000+0  00000-0 0  9999
2 51382  85.0000 288.0000 0000000   0.0000 198.0000 12.77881384    10
CTC1_L_00418026-01
1 51383U 23140WL  26070.40836806  .00000000  00000+0  00000-0 0  9999
2 51383  85.0000 300.0000 0000000   0.0000 300.0000 12.77881384    11
CTC1_L_00418026-02
1 51384U 24980CS  26070.40836806  .00000000  00000+0  00000-0 0  9993
2 51384  85.0000 300.0000 0000000   0.0000  30.0000 12.77881384    12
CTC1_L_00418026-03
1 51385U 25028F   26070.40836806  .00000000  00000+0  00000-0 0  9998
2 51385  85.0000 300.0000 0000000   0.0000 120.0000 12.77881384    13
CTC1_L_00418026-04
1 51386U 23088XF  26070.40836806  .00000000  00000+0  00000-0 0  9993
2 51386  85.0000 300.0000 0000000   0.0000 210.0000 12.77881384    14
CTC1_L_00418027-01
1 51387U 23780SY  26070.40836806  .00000000  00000+0  00000-0 0  9993
2 51387  85.0000 312.0000 0000000   0.0000 312.0000 12.77881384    11
CTC1_L_00418027-02
1 51388U 24148HE  26070.40836806  .00000000  00000+0  00000-0 0  9993
2 51388  85.0000 312.0000 0000000   0.0000  42.0000 12.77881384    12
CTC1_L_00418027-03
1 51389U 23802GU  26070.40836806  .00000000  00000+0  00000-0 0  9990
2 51389  85.0000 312.0000 0000000   0.0000 132.0000 12.77881384    13
CTC1_L_00418027-04
1 51390U 26613YW  26070.40836806  .00000000  00000+0  00000-0 0  9995
2 51390  85.0000 312.0000 0000000   0.0000 222.0000 12.77881384    15
CTC1_L_00418028-01
1 51391U 25390FS  26070.40836806  .00000000  00000+0  00000-0 0  9997
2 51391  85.0000 324.0000 0000000   0.0000 324.0000 12.77881384    12
CTC1_L_00418028-02
1 51392U 23121GC  26070.40836806  .00000000  00000+0  00000-0 0  9998
2 51392  85.0000 324.0000 0000000   0.0000  54.0000 12.77881384    13
CTC1_L_00418028-03
1 51393U 24750CI  26070.40836806  .00000000  00000+0  00000-0 0  9998
2 51393  85.0000 324.0000 0000000   0.0000 144.0000 12.77881384    14
CTC1_L_00418028-04
1 51394U 26657FW  26070.40836806  .00000000  00000+0  00000-0 0  9997
2 51394  85.0000 324.0000 0000000   0.0000 234.0000 12.77881384    15
CTC1_L_00418029-01
1 51395U 25585WK  26070.40836806  .00000000  00000+0  00000-0 0  9997
2 51395  85.0000 336.0000 0000000   0.0000 336.0000 12.77881384    12
CTC1_L_00418029-02
1 51396U 22337DS  26070.40836806  .00000000  00000+0  00000-0 0  9990
2 51396  85.0000 336.0000 0000000   0.0000  66.0000 12.77881384    13
CTC1_L_00418029-03
1 51397U 25943TZ  26070.40836806  .00000000  00000+0  00000-0 0  9997
2 51397  85.0000 336.0000 0000000   0.0000 156.0000 12.77881384    14
CTC1_L_00418029-04
1 51398U 26044CA  26070.40836806  .00000000  00000+0  00000-0 0  9991
2 51398  85.0000 336.0000 0000000   0.0000 246.0000 12.77881384    15
CTC1_L_00418030-01
1 51399U 23507MX  26070.40836806  .00000000  00000+0  00000-0 0  9993
2 51399  85.0000 348.0000 0000000   0.0000 348.0000 12.77881384    12
CTC1_L_00418030-02
1 51400U 25115RM  26070.40836806  .00000000  00000+0  00000-0 0  9993
2 51400  85.0000 348.0000 0000000   0.0000  78.0000 12.77881384    15
CTC1_L_00418030-03
1 51401U 24486OL  26070.40836806  .00000000  00000+0  00000-0 0  9994
2 51401  85.0000 348.0000 0000000   0.0000 168.0000 12.77881384    16
CTC1_L_00418030-04
1 51402U 23623BM  26070.40836806  .00000000  00000+0  00000-0 0  9997
2 51402  85.0000 348.0000 0000000   0.0000 258.0000 12.77881384    17
